STARLINK-31124          
1 58674U 23211H   25095.71197402  .00060466  00000+0  22972-2 0  9996
2 58674  43.0016 193.2696 0001465 240.7163 119.3541 15.25985362 70783
STARLINK-31126          
1 58675U 23211J   25096.63972528 -.00005954  00000+0 -21799-3 0  9999
2 58675  43.0041 188.2021 0001229 267.9914  92.0796 15.25903950 72099
STARLINK-31066          
1 58676U 23211K   25096.48370150 -.00000143  00000+0  44706-5 0  9995
2 58676  43.0035 266.9668 0001707 276.8867  83.1781 15.02533360 71263
STARLINK-31058          
1 58677U 23211L   25096.56069106  .00003948  00000+0  16068-3 0  9994
2 58677  43.0031 188.4583 0002164 288.1699  71.8916 15.25915384 72092
STARLINK-31125          
1 58678U 23211M   25096.65542197  .00017597  00000+0  68099-3 0  9997
2 58678  42.9997 187.4704 0001184 277.8112  82.2604 15.25908236 72102
STARLINK-31110          
1 58679U 23211N   25096.55393112 -.00007637  00000+0 -28264-3 0  9994
2 58679  43.0011 188.4063 0000696 205.4998 154.5819 15.25886379 72189
STARLINK-31112          
1 58680U 23211P   25096.54937285 -.00000130  00000+0  48467-5 0  9999
2 58680  42.9991 188.3772 0000777 151.3058 208.7836 15.25910305 72096
STARLINK-31147          
1 58681U 23211Q   25096.55165880 -.00007959  00000+0 -29496-3 0  9991
2 58681  43.0031 188.3897 0001459 294.6208  65.4490 15.25885713 72186
STARLINK-31144          
1 58682U 23211R   25096.65314888  .00005276  00000+0  21137-3 0  9999
2 58682  42.9995 187.4537 0001043 235.7639 124.3113 15.25914805 72214
STARLINK-31095          
1 58683U 23211S   25096.67576294 -.00003503  00000+0 -12412-3 0  9992
2 58683  43.0023 187.6059 0000788 271.6816  88.3945 15.25920233 72204
STARLINK-31107          
1 58684U 23211T   25096.73215298  .00001341  00000+0  61010-4 0  9999
2 58684  42.9988 187.1741 0000100 299.7508  60.3333 15.25945231 72119
STARLINK-31121          
1 58685U 23211U   25096.52902293 -.00001647  00000+0 -53114-4 0  9992
2 58685  43.0058 188.2403 0002805 280.0652  79.9883 15.25902084 72085
STARLINK-31137          
1 58686U 23211V   25096.51999951 -.00005732  00000+0 -20956-3 0  9995
2 58686  42.9998 188.1706 0000874 261.3028  98.7724 15.25895496 72187
STARLINK-31139          
1 58688U 23211X   25096.53353299  .00000198  00000+0  17404-4 0  9992
2 58688  43.0036 188.2692 0001181 263.0879  96.9838 15.25922457 72188
STARLINK-31106          
1 58689U 23211Y   25096.73667680  .00002454  00000+0  10356-3 0  9992
2 58689  42.9981 187.2029 0001002 168.6517 191.4356 15.25931378 72111
STARLINK-11072 [DTC]    
1 58705U 24002A   25096.40931948  .00001080  00000+0  13760-4 0  9992
2 58705  53.1574 136.6934 0001438  89.8316 270.2866 15.69733735 73410
STARLINK-11075 [DTC]    
1 58706U 24002B   25096.48207020 -.00009527  00000+0 -60733-4 0  9996
2 58706  53.1581 137.1695 0001595  59.0049 301.1127 15.74221104 73417
STARLINK-11077 [DTC]    
1 58707U 24002C   25096.80116016 -.00001356  00000+0 -63246-5 0  9992
2 58707  53.1577 134.8591 0001653  41.6505 318.4639 15.69715634 73476
STARLINK-11079 [DTC]    
1 58708U 24002D   25096.40442103 -.00000771  00000+0 -15021-5 0  9996
2 58708  53.1581 136.6582 0001208  84.9047 275.2109 15.69727235 73415
STARLINK-11076 [DTC]    
1 58709U 24002E   25095.50815475  .00003449  00000+0  33310-4 0  9996
2 58709  53.1574 141.0233 0001310  78.4694 281.6471 15.69714142 73327
STARLINK-11078 [DTC]    
1 58710U 24002F   25096.39461498 -.00002067  00000+0 -12199-4 0  9997
2 58710  53.1586 136.6004 0001110  82.3523 277.7621 15.69723734 73411
STARLINK-31031          
1 58711U 24002G   25096.39655660 -.00002110  00000+0 -12809-3 0  9990
2 58711  53.1614 344.0789 0001735  95.6470 264.4717 15.04919278 70404
STARLINK-31029          
1 58712U 24002H   25096.90436535 -.00002404  00000+0 -14859-3 0  9999
2 58712  53.1610 342.2517 0001740 112.4264 247.6911 15.04928728 70471
STARLINK-30973          
1 58713U 24002J   25096.90114499 -.00003185  00000+0 -20321-3 0  9990
2 58713  53.1611 342.2390 0001957  93.2418 266.8796 15.04921926 70599
STARLINK-31100          
1 58714U 24002K   25096.89793012 -.00001425  00000+0 -80189-4 0  9997
2 58714  53.1624 342.2210 0001434 103.9661 256.1489 15.04920789 70636
STARLINK-31102          
1 58715U 24002L   25096.89473608  .00008220  00000+0  59310-3 0  9993
2 58715  53.1594 342.1999 0001326 111.2987 248.8144 15.04910950 70522
STARLINK-31098          
1 58716U 24002M   25096.89151588  .00015631  00000+0  11092-2 0  9992
2 58716  53.1611 342.1822 0001336  75.9838 284.1300 15.04912864 70590
STARLINK-31093          
1 58717U 24002N   25096.86467547  .00006429  00000+0  46821-3 0  9999
2 58717  53.1606 342.0310 0001726  79.2170 280.9014 15.04914845 70479
STARLINK-31097          
1 58718U 24002P   25096.88826948 -.00000253  00000+0  16930-5 0  9996
2 58718  53.1623 342.1563 0001660  96.2039 263.9139 15.04924702 70595
STARLINK-31051          
1 58719U 24002Q   25096.42016763  .00003054  00000+0  23255-3 0  9990
2 58719  53.1614 344.2138 0001352  90.8539 269.2605 15.04931544 70409
STARLINK-31027          
1 58720U 24002R   25096.88180598 -.00002690  00000+0 -16857-3 0  9997
2 58720  53.1639 342.1125 0001214 121.8199 238.2909 15.04941506 70474
STARLINK-30972          
1 58721U 24002S   25095.94883757  .00001185  00000+0  10212-3 0  9996
2 58721  53.1600 346.2476 0001547  76.1984 283.9178 15.04926192 70480
STARLINK-31040          
1 58722U 24002T   25096.87431545 -.00008444  00000+0 -57172-3 0  9997
2 58722  53.1612 342.0724 0001119  97.4342 262.6775 15.04893109 70593
STARLINK-31033          
1 58723U 24002U   25096.85824647  .00014002  00000+0  99557-3 0  9993
2 58723  53.1609 341.9703 0001754  98.1701 261.9487 15.04923448 70465
STARLINK-30893          
1 58724U 24002V   25096.07414469 -.00004795  00000+0 -31592-3 0  9990
2 58724  53.1611 345.6230 0001259  88.3930 271.7204 15.04910839 70354
STARLINK-30856          
1 58725U 24002W   25095.93811181 -.00003447  00000+0 -22152-3 0  9992
2 58725  53.1623 346.1955 0001975  93.6393 266.4823 15.04924984 70483
STARLINK-31115          
1 58729U 24005B   25096.49719174  .00000015  00000+0  16172-4 0  9992
2 58729  43.0014 253.4401 0001129 277.3290  82.7424 15.02529040 69715
STARLINK-31150          
1 58730U 24005C   25096.70208328  .00045856  00000+0  99001-3 0  9995
2 58730  43.0024  92.5110 0002059 174.5456 185.5424 15.43804392 71594
STARLINK-31204          
1 58731U 24005D   25096.79166440  .00006570  00000+0  24815-3 0  9994
2 58731  43.0036 242.0040 0002868 273.5641  86.4883 15.27567754 69861
STARLINK-31180          
1 58732U 24005E   25095.85904811  .00000003  00000+0  15286-4 0  9991
2 58732  43.0023 257.2616 0001681 270.6373  89.4277 15.02533322 69594
STARLINK-31164          
1 58733U 24005F   25095.89569257  .00012140  00000+0  91213-3 0  9995
2 58733  43.0021 257.5266 0001656 271.5083  88.5570 15.02538864 69612
STARLINK-31152          
1 58734U 24005G   25095.82588113  .00001861  00000+0  15281-3 0  9990
2 58734  43.0029 257.8631 0001388 267.4699  92.5984 15.02530662 69598
STARLINK-31157          
1 58735U 24005H   25096.81970549 -.00001265  00000+0 -78538-4 0  9994
2 58735  43.0070 252.4148 0001704 287.0703  72.9953 15.02543442 69740
STARLINK-31076          
1 58736U 24005J   25096.48398794 -.00001562  00000+0 -10063-3 0  9992
2 58736  43.0001 254.1968 0000623 234.8373 125.2411 15.02537962 69758
STARLINK-31101          
1 58737U 24005K   25095.87902893  .00000201  00000+0  29981-4 0  9993
2 58737  43.0021 257.3968 0001301 266.6787  93.3906 15.02526568 69611
STARLINK-31108          
1 58738U 24005L   25096.81304453  .00002308  00000+0  18587-3 0  9996
2 58738  43.0021 252.3665 0001417 261.8543  98.2139 15.02533022 69767
STARLINK-31042          
1 58739U 24005M   25096.80639733  .00001502  00000+0  12624-3 0  9999
2 58739  43.0021 252.3161 0001031 276.2656  83.8069 15.02535876 69745
STARLINK-31159          
1 58740U 24005N   25096.73657606 -.00000899  00000+0 -51488-4 0  9994
2 58740  43.0030 252.6523 0001006 268.4543  91.6184 15.02542951 69839
STARLINK-31148          
1 58741U 24005P   25096.73324531 -.00000494  00000+0 -21534-4 0  9993
2 58741  43.0011 252.6440 0000588 268.1756  91.9019 15.02545345 69733
STARLINK-31151          
1 58742U 24005Q   25096.72992456  .00000367  00000+0  42263-4 0  9999
2 58742  43.0033 252.6177 0001366 265.1398  94.9288 15.02529341 69839
STARLINK-31156          
1 58743U 24005R   25096.46067671 -.00003767  00000+0 -26393-3 0  9997
2 58743  42.9999 254.0397 0000754 262.2349  97.8408 15.02539978 69746
STARLINK-31167          
1 58744U 24005S   25096.51735050 -.00021001  00000+0 -79596-3 0  9991
2 58744  42.9981 176.2163 0000182 112.0499 248.0371 15.25883061 70669
STARLINK-31176          
1 58745U 24005T   25096.71992617 -.00000372  00000+0 -12472-4 0  9997
2 58745  42.9995 252.5405 0000793 274.1644  85.9107 15.02544113 69730
STARLINK-31181          
1 58746U 24005U   25096.50214438 -.00006538  00000+0 -22808-3 0  9996
2 58746  43.0010 171.7740 0001785 288.2296  71.8362 15.27606751 70717
STARLINK-31183          
1 58747U 24005V   25096.84621711 -.00006674  00000+0 -47924-3 0  9997
2 58747  43.0037 251.7710 0001248 271.8658  88.2041 15.02551163 69855
STARLINK-31165          
1 58748U 24005W   25096.71660636  .00003334  00000+0  26183-3 0  9995
2 58748  43.0018 252.5160 0001406 258.0521 102.0164 15.02525653 69738
STARLINK-31160          
1 58749U 24005X   25095.77591343  .00001263  00000+0  10853-3 0  9995
2 58749  43.0037 257.4298 0001346 261.8573  98.2117 15.02531394 69595
STARLINK-31179          
1 58750U 24005Y   25096.44403133  .00000205  00000+0  30241-4 0  9990
2 58750  43.0030 253.9090 0001289 267.3937  92.6758 15.02534938 69699
STARLINK-31127          
1 58765U 24011A   25096.34878216 -.00002873  00000+0 -18148-3 0  9996
2 58765  53.1593 123.6700 0001556  95.0321 265.0847 15.04913684 68743
